{
    "links": {
        "self": "http://www.neowsapp.com/rest/v1/neo/3559595?api_key=iIulBulltgU6a56xZRHN4H3l9WmuAYTsLGpBGhQ2"
    },
    "id": "3559595",
    "neo_reference_id": "3559595",
    "name": "(2011 EL40)",
    "designation": "2011 EL40",
    "nasa_jpl_url": "http://ssd.jpl.nasa.gov/sbdb.cgi?sstr=3559595",
    "absolute_magnitude_h": 26.4,
    "estimated_diameter": {
        "kilometers": {
            "estimated_diameter_min": 0.0139493823,
            "estimated_diameter_max": 0.0311917671
        },
        "meters": {
            "estimated_diameter_min": 13.9493822934,
            "estimated_diameter_max": 31.1917670523
        },
        "miles": {
            "estimated_diameter_min": 0.0086677416,
            "estimated_diameter_max": 0.0193816595
        },
        "feet": {
            "estimated_diameter_min": 45.7656914036,
            "estimated_diameter_max": 102.3351970157
        }
    },
    "is_potentially_hazardous_asteroid": false,
    "close_approach_data": [
        {
            "close_approach_date": "1908-03-21",
            "close_approach_date_full": "1908-Mar-21 15:42",
            "epoch_date_close_approach": -1949645880000,
            "relative_velocity": {
                "kilometers_per_second": "12.3190461057",
                "kilometers_per_hour": "44348.5659806096",
                "miles_per_hour": "27556.474233896"
            },
            "miss_distance": {
                "astronomical": "0.0434687362",
                "lunar": "16.9093383818",
                "kilometers": "6502830.347111894",
                "miles": "4040671.4092723772"
            },
            "orbiting_body": "Venus"
        },
        {
            "close_approach_date": "1913-07-05",
            "close_approach_date_full": "1913-Jul-05 22:58",
            "epoch_date_close_approach": -1782694920000,
            "relative_velocity": {
                "kilometers_per_second": "8.779620692",
                "kilometers_per_hour": "31606.634491037",
                "miles_per_hour": "19639.1335258335"
            },
            "miss_distance": {
                "astronomical": "1.8730132638",
                "lunar": "728.6021596182",
                "kilometers": "280198794.746228106",
                "miles": "174107457.5852196228"
            },
            "orbiting_body": "Juptr"
        },
        {
            "close_approach_date": "1925-03-24",
            "close_approach_date_full": "1925-Mar-24 03:29",
            "epoch_date_close_approach": -1412973060000,
            "relative_velocity": {
                "kilometers_per_second": "6.0416106336",
                "kilometers_per_hour": "21749.7982811262",
                "miles_per_hour": "13514.4788264031"
            },
            "miss_distance": {
                "astronomical": "1.2552942288",
                "lunar": "488.3094550032",
                "kilometers": "187789342.851772656",
                "miles": "116686886.8052524128"
            },
            "orbiting_body": "Juptr"
        },
        {
            "close_approach_date": "2011-03-07",
            "close_approach_date_full": "2011-Mar-07 22:50",
            "epoch_date_close_approach": 1299538200000,
            "relative_velocity": {
                "kilometers_per_second": "17.4970767373",
                "kilometers_per_hour": "62989.4762543128",
                "miles_per_hour": "39139.2109536867"
            },
            "miss_distance": {
                "astronomical": "0.0087388683",
                "lunar": "3.3994197687",
                "kilometers": "1307316.083890521",
                "miles": "812328.5463543498"
            },
            "orbiting_body": "Moon"
        },
        {
            "close_approach_date": "2011-03-08",
            "close_approach_date_full": "2011-Mar-08 04:36",
            "epoch_date_close_approach": 1299558960000,
            "relative_velocity": {
                "kilometers_per_second": "17.8676101998",
                "kilometers_per_hour": "64323.3967192127",
                "miles_per_hour": "39968.0572558908"
            },
            "miss_distance": {
                "astronomical": "0.0084414313",
                "lunar": "3.2837167757",
                "kilometers": "1262820.142231331",
                "miles": "784680.0502851278"
            },
            "orbiting_body": "Earth"
        }
    ],
    "orbital_data": {
        "orbit_id": "6",
        "orbit_determination_date": "2017-04-06 08:54:11",
        "first_observation_date": "2011-03-10",
        "last_observation_date": "2011-03-14",
        "data_arc_in_days": 4,
        "observations_used": 30,
        "orbit_uncertainty": "8",
        "minimum_orbit_intersection": ".00668416",
        "jupiter_tisserand_invariant": "3.103",
        "epoch_osculation": "2455632.5",
        "eccentricity": ".7063346155959693",
        "semi_major_axis": "2.438661077782728",
        "inclination": "1.351465067769131",
        "ascending_node_longitude": "188.1764093233831",
        "orbital_period": "1390.995090107213",
        "perihelion_distance": ".7161503428382124",
        "perihelion_argument": "267.9603007176042",
        "aphelion_distance": "4.161171812727242",
        "perihelion_time": "2455586.461162536040",
        "mean_anomaly": "11.91519769185392",
        "mean_motion": ".2588075274746314",
        "equinox": "J2000",
        "orbit_class": {
            "orbit_class_type": "APO",
            "orbit_class_description": "Near-Earth asteroid orbits which cross the Earth’s orbit similar to that of 1862 Apollo",
            "orbit_class_range": "a (semi-major axis) > 1.0 AU; q (perihelion) < 1.017 AU"
        }
    },
    "is_sentry_object": false
}